     2.100          NAVIGATION                              RINEX VERSION / TYPE
fic2rin                                 07/27/2013 00:14:59 PGM / RUN BY / DATE
                                                            END OF HEADER
16 13  7 26  4  0  0.0 -.249665696174D-03  .568434188608D-12  .000000000000D+00
     .490000000000D+02  .594062500000D+02  .408445584827D-08  .172357190907D+01
     .319443643093D-05  .710138003342D-02  .514276325703D-05  .515367952728D+04
     .446400000000D+06 -.577419996262D-07  .177020807995D+01  .894069671631D-07
     .985125438726D+00  .294625000000D+03  .133585668059D+00 -.805997858760D-08
     .269296931584D-09  .100000000000D+01  .175000000000D+04  .000000000000D+00
     .240000000000D+01  .000000000000D+00 -.977888703346D-08  .490000000000D+02
     .439206000000D+06  .400000000000D+01
17 13  7 26  4  0  0.0 -.468594953418D-05 -.375166564481D-11  .000000000000D+00
     .680000000000D+02 -.840625000000D+02  .467912347570D-08  .749758782828D+00
    -.452250242233D-05  .841086916625D-02  .554323196411D-05  .515365917778D+04
     .446400000000D+06 -.126659870148D-06  .280649718987D+01  .763684511185D-07
     .966222108698D+00  .275187500000D+03 -.219154642216D+01 -.841142179805D-08
    -.329656588663D-09  .100000000000D+01  .175000000000D+04  .000000000000D+00
     .340000000000D+01  .000000000000D+00 -.102445483208D-07  .680000000000D+02
     .439206000000D+06  .400000000000D+01
18 13  7 26  4  0  0.0  .265483278781D-03  .181898940355D-11  .000000000000D+00
     .104000000000D+03  .615000000000D+02  .557023202252D-08  .224989886694D+01
     .297836959362D-05  .145758573199D-01  .667199492455D-05  .515361723328D+04
     .446400000000D+06 -.409781932831D-07 -.142417571779D+01 -.331550836563D-06
     .926593667980D+00  .231500000000D+03 -.209025361301D+01 -.843427989304D-08
     .349657421778D-09  .100000000000D+01  .175000000000D+04  .000000000000D+00
     .340000000000D+01  .000000000000D+00 -.107102096081D-07  .104000000000D+03
     .439206000000D+06  .400000000000D+01
19 13  7 26  4  0  0.0 -.391654204577D-03 -.295585778076D-11  .000000000000D+00
     .910000000000D+02 -.870312500000D+02  .468698094586D-08 -.277529866976D-01
    -.444054603577D-05  .946671434212D-02  .570528209209D-05  .515372315598D+04
     .446400000000D+06  .931322574615D-07  .285825621899D+01  .502914190292D-07
     .963465969573D+00  .270437500000D+03  .348101152153D+00 -.840177853923D-08
    -.246795994329D-09  .100000000000D+01  .175000000000D+04  .000000000000D+00
     .240000000000D+01  .000000000000D+00 -.144354999065D-07  .910000000000D+02
     .439206000000D+06  .400000000000D+01
20 13  7 26  4  0  0.0  .111637637019D-03  .238742359215D-11  .000000000000D+00
     .830000000000D+02  .761562500000D+02  .557308928440D-08  .274293312430D+01
     .385567545891D-05  .538687536027D-02  .641308724880D-05  .515370347023D+04
     .446400000000D+06  .558793544769D-07 -.147757924969D+01 -.409781932831D-07
     .927396020030D+00  .235531250000D+03  .129221177927D+01 -.854642742158D-08
     .388587614805D-09  .100000000000D+01  .175000000000D+04  .000000000000D+00
     .240000000000D+01  .000000000000D+00 -.791624188423D-08  .830000000000D+02
     .439206000000D+06  .400000000000D+01
21 13  7 26  4  0  0.0 -.310275703669D-03 -.193267624127D-11  .000000000000D+00
     .630000000000D+02 -.378437500000D+02  .490841874106D-08 -.300203497357D+01
    -.218302011490D-05  .204765471863D-01  .122096389532D-04  .515366359138D+04
     .446400000000D+06  .178813934326D-06 -.247159515172D+01 -.298023223877D-06
     .931898855545D+00  .127000000000D+03 -.211755154733D+01 -.785711299458D-08
     .150720563831D-09  .100000000000D+01  .175000000000D+04  .000000000000D+00
     .240000000000D+01  .000000000000D+00 -.111758708954D-07  .630000000000D+02
     .439206000000D+06  .400000000000D+01
22 13  7 26  4  0  0.0  .177257694304D-03  .159161572810D-11  .000000000000D+00
     .180000000000D+02  .626875000000D+02  .574523931228D-08  .166686726303D+01
     .324100255966D-05  .680690782610D-02  .632740557194D-05  .515364698219D+04
     .446400000000D+06 -.216066837311D-06 -.142168507050D+01 -.113621354103D-06
     .924344118368D+00  .240281250000D+03 -.203628910908D+01 -.872357765774D-08
     .368943939425D-09  .100000000000D+01  .175000000000D+04  .000000000000D+00
     .240000000000D+01  .000000000000D+00 -.172294676304D-07  .180000000000D+02
     .439206000000D+06  .400000000000D+01
23 13  7 26  4  0  0.0  .635026954114D-04 -.352429196937D-11  .000000000000D+00
     .870000000000D+02 -.404687500000D+02  .498663628485D-08 -.491988998002D+00
    -.224448740482D-05  .881299318280D-02  .591017305851D-05  .515367563438D+04
     .446400000000D+06  .106170773506D-06 -.363487273093D+00  .558793544769D-07
     .955218047683D+00  .260437500000D+03 -.285298851431D+01 -.844035157452D-08
    -.540379651839D-09  .100000000000D+01  .175000000000D+04  .000000000000D+00
     .240000000000D+01  .000000000000D+00 -.200234353542D-07  .870000000000D+02
     .439206000000D+06  .400000000000D+01
24 13  7 26  4  0  0.0 -.106403604150D-04 -.682121026330D-12  .000000000000D+00
     .120000000000D+03  .406250000000D+01  .415303013323D-08 -.131434479062D+01
     .318512320518D-06  .950640649535D-03  .122804194689D-04  .515367726707D+04
     .446400000000D+06  .372529029846D-07  .662629030736D+00 -.104308128357D-06
     .958918692070D+00  .144875000000D+03  .356361339149D+00 -.787318509262D-08
    -.243938732456D-09  .100000000000D+01  .175000000000D+04  .000000000000D+00
     .240000000000D+01  .000000000000D+00  .325962901115D-08  .120000000000D+03
     .439206000000D+06  .400000000000D+01
25 13  7 26  4  0  0.0  .127188861370D-03  .500222085975D-11  .000000000000D+00
     .690000000000D+02  .583125000000D+02  .427624955153D-08  .293023585247D+01
     .306591391563D-05  .275785138365D-02  .565685331821D-05  .515374619865D+04
     .446400000000D+06  .931322574615D-08  .171283276058D+01 -.353902578354D-07
     .973261446669D+00  .276468750000D+03  .739946684058D+00 -.810640909305D-08
     .435375277985D-09  .100000000000D+01  .175000000000D+04  .000000000000D+00
     .240000000000D+01  .000000000000D+00  .558793544769D-08  .690000000000D+02
     .439206000000D+06  .400000000000D+01
26 13  7 26  4  0  0.0  .113228335977D-03  .169393388205D-10  .000000000000D+00
     .140000000000D+02 -.369375000000D+02  .458661962255D-08 -.498733645755D+00
    -.177323818207D-05  .210671097739D-01  .675395131111D-05  .515368641281D+04
     .446400000000D+06 -.165775418282D-06 -.281666857401D+00  .225380063057D-06
     .978495141427D+00  .260062500000D+03  .124684971495D+01 -.852928385034D-08
    -.544665544649D-09  .100000000000D+01  .175000000000D+04  .000000000000D+00
     .240000000000D+01  .000000000000D+00 -.558793544769D-08  .140000000000D+02
     .439206000000D+06  .400000000000D+01
27 13  7 26  4  0  0.0 -.155670568347D-04 -.488853402203D-11  .000000000000D+00
     .160000000000D+02 -.792187500000D+02  .472055377287D-08 -.390630082511D-01
    -.411272048950D-05  .306509668007D-03  .491738319397D-05  .515366253662D+04
     .446400000000D+06 -.372529029846D-07  .276292927023D+01 -.260770320892D-07
     .960777778605D+00  .285625000000D+03  .891444430799D+00 -.833463288520D-08
    -.231795369493D-09  .100000000000D+01  .175000000000D+04  .000000000000D+00
     .240000000000D+01  .000000000000D+00  .186264514923D-08  .160000000000D+02
     .439206000000D+06  .400000000000D+01
28 13  7 26  4  0  0.0  .278824474663D-03  .318323145621D-11  .000000000000D+00
     .700000000000D+02  .610625000000D+02  .422839041515D-08  .153649411772D+01
     .287406146526D-05  .186294049490D-01  .526197254658D-05  .515364423180D+04
     .446400000000D+06 -.167638063431D-06  .177638044439D+01 -.433996319771D-06
     .983581197031D+00  .289781250000D+03 -.176591975211D+01 -.820605610089D-08
     .450733060555D-09  .100000000000D+01  .175000000000D+04  .000000000000D+00
     .240000000000D+01  .000000000000D+00 -.107102096081D-07  .700000000000D+02
     .439206000000D+06  .400000000000D+01
29 13  7 26  4  0  0.0  .456746667624D-03  .329691829393D-11  .000000000000D+00
     .740000000000D+02 -.811250000000D+02  .455983279248D-08 -.273256097806D+01
    -.420585274696D-05  .165998772718D-02  .516325235367D-05  .515360992241D+04
     .446400000000D+06  .484287738800D-07  .281532681773D+01  .335276126862D-07
     .966881163533D+00  .279968750000D+03 -.984561415049D+00 -.823855745470D-08
    -.198222542479D-09  .100000000000D+01  .175000000000D+04  .000000000000D+00
     .240000000000D+01  .000000000000D+00 -.931322574615D-08  .740000000000D+02
     .439206000000D+06  .400000000000D+01
30 13  7 26  4  0  0.0 -.168885104358D-03  .113686837722D-11  .000000000000D+00
     .210000000000D+02  .568750000000D+02  .550130057982D-08  .166410420137D+01
     .291131436825D-05  .637825322337D-02  .531598925591D-05  .515369189835D+04
     .446400000000D+06 -.152736902237D-06  .172973933470D+01 -.186264514923D-07
     .978074785084D+00  .286750000000D+03  .884560318676D+00 -.818248369043D-08
     .356800576462D-09  .100000000000D+01  .175000000000D+04  .000000000000D+00
     .240000000000D+01  .630000000000D+02 -.190921127796D-07  .210000000000D+02
     .439206000000D+06  .400000000000D+01
31 13  7 26  4  0  0.0  .321729108691D-03  .102318153949D-11  .000000000000D+00
     .920000000000D+02  .257812500000D+02  .376515683390D-08 -.203760771760D+01
     .130943953991D-05  .785252149217D-02  .113621354103D-04  .515364228821D+04
     .446400000000D+06 -.141561031342D-06  .696921755714D+00  .111758708954D-06
     .980388581668D+00  .174125000000D+03 -.735002329626D+00 -.769853496060D-08
    -.121433629627D-09  .100000000000D+01  .175000000000D+04  .000000000000D+00
     .240000000000D+01  .000000000000D+00 -.130385160446D-07  .920000000000D+02
     .439206000000D+06  .400000000000D+01
